OBJECT_NAME,OBJECT_ID,EPOCH,MEAN_MOTION,ECCENTRICITY,INCLINATION,RA_OF_ASC_NODE,ARG_OF_PERICENTER,MEAN_ANOMALY,EPHEMERIS_TYPE,CLASSIFICATION_TYPE,NORAD_CAT_ID,ELEMENT_SET_NO,REV_AT_EPOCH,BSTAR,MEAN_MOTION_DOT,MEAN_MOTION_DDOT
ONEWEB-0700,2024-188N,2026-06-14T03:54:32.881248,13.10375053,.000193,87.8855,36.7771,103.6539,256.4803,0,U,61606,999,8290,.14659E-2,.524E-5,0
ONEWEB-0701,2024-188P,2026-06-14T04:18:27.050400,13.10370720,.0001532,87.8837,36.8643,110.6580,249.4712,0,U,61607,999,8291,.15267E-2,.546E-5,0
ONEWEB-0702,2024-188Q,2026-06-14T02:53:10.851072,13.11419424,.0001948,87.8906,21.5970,116.4630,243.6698,0,U,61608,999,8408,.13007E-2,.474E-5,0
ONEWEB-0704,2024-188R,2026-06-14T02:11:46.222080,13.10374112,.000214,87.8846,36.8714,113.4286,246.7067,0,U,61609,999,8288,.18974E-2,.675E-5,0
ONEWEB-0705,2024-188S,2026-06-14T04:08:53.498688,13.10388379,.0002623,87.8845,36.8606,99.8496,260.2928,0,U,61610,999,7506,.83033E-2,.2913E-4,0
ONEWEB-0706,2024-188T,2026-06-14T03:47:22.301664,13.10376165,.0002044,87.8839,36.8690,99.9715,260.1643,0,U,61611,999,8298,.12456E-2,.448E-5,0
ONEWEB-0707,2024-188U,2026-06-14T03:56:56.395104,13.10374797,.0001939,87.8844,36.8616,100.6594,259.4751,0,U,61612,999,8292,.18525E-2,.659E-5,0
ONEWEB-0708,2024-188V,2026-06-14T04:23:13.816320,13.10370107,.0002369,87.8831,36.8762,84.8083,275.3315,0,U,61613,999,8290,.10721E-2,.387E-5,0
