ONEWEB-0700             
1 61606U 24188N   26165.16288057  .00000524  00000+0  14659-2 0  9996
2 61606  87.8855  36.7771 0001930 103.6539 256.4803 13.10375053 82908
ONEWEB-0701             
1 61607U 24188P   26165.17947975  .00000546  00000+0  15267-2 0  9999
2 61607  87.8837  36.8643 0001532 110.6580 249.4712 13.10370720 82918
ONEWEB-0702             
1 61608U 24188Q   26165.12026448  .00000474  00000+0  13007-2 0  9998
2 61608  87.8906  21.5970 0001948 116.4630 243.6698 13.11419424 84086
ONEWEB-0704             
1 61609U 24188R   26165.09150720  .00000675  00000+0  18974-2 0  9997
2 61609  87.8846  36.8714 0002140 113.4286 246.7067 13.10374112 82887
ONEWEB-0705             
1 61610U 24188S   26165.17284142  .00002913  00000+0  83033-2 0  9999
2 61610  87.8845  36.8606 0002623  99.8496 260.2928 13.10388379 75063
ONEWEB-0706             
1 61611U 24188T   26165.15789701  .00000448  00000+0  12456-2 0  9991
2 61611  87.8839  36.8690 0002044  99.9715 260.1643 13.10376165 82984
ONEWEB-0707             
1 61612U 24188U   26165.16454161  .00000659  00000+0  18525-2 0  9999
2 61612  87.8844  36.8616 0001939 100.6594 259.4751 13.10374797 82920
ONEWEB-0708             
1 61613U 24188V   26165.18279880  .00000387  00000+0  10721-2 0  9993
2 61613  87.8831  36.8762 0002369  84.8083 275.3315 13.10370107 82905
